{
    "links": {
        "self": "http://www.neowsapp.com/rest/v1/neo/3788020?api_key=iIulBulltgU6a56xZRHN4H3l9WmuAYTsLGpBGhQ2"
    },
    "id": "3788020",
    "neo_reference_id": "3788020",
    "name": "(2017 UC5)",
    "designation": "2017 UC5",
    "nasa_jpl_url": "http://ssd.jpl.nasa.gov/sbdb.cgi?sstr=3788020",
    "absolute_magnitude_h": 21.6,
    "estimated_diameter": {
        "kilometers": {
            "estimated_diameter_min": 0.1272198785,
            "estimated_diameter_max": 0.2844722965
        },
        "meters": {
            "estimated_diameter_min": 127.2198785394,
            "estimated_diameter_max": 284.4722965033
        },
        "miles": {
            "estimated_diameter_min": 0.0790507431,
            "estimated_diameter_max": 0.1767628354
        },
        "feet": {
            "estimated_diameter_min": 417.3880663071,
            "estimated_diameter_max": 933.3080892598
        }
    },
    "is_potentially_hazardous_asteroid": false,
    "close_approach_data": [
        {
            "close_approach_date": "1924-12-02",
            "close_approach_date_full": "1924-Dec-02 16:26",
            "epoch_date_close_approach": -1422603240000,
            "relative_velocity": {
                "kilometers_per_second": "11.5448565538",
                "kilometers_per_hour": "41561.4835937189",
                "miles_per_hour": "25824.6896252194"
            },
            "miss_distance": {
                "astronomical": "0.0833803506",
                "lunar": "32.4349563834",
                "kilometers": "12473522.849613222",
                "miles": "7750687.6945855836"
            },
            "orbiting_body": "Mars"
        },
        {
            "close_approach_date": "1960-08-28",
            "close_approach_date_full": "1960-Aug-28 10:41",
            "epoch_date_close_approach": -294844740000,
            "relative_velocity": {
                "kilometers_per_second": "11.5911191285",
                "kilometers_per_hour": "41728.0288626385",
                "miles_per_hour": "25928.1743785656"
            },
            "miss_distance": {
                "astronomical": "0.0824426922",
                "lunar": "32.0702072658",
                "kilometers": "12333251.150185614",
                "miles": "7663526.9022609132"
            },
            "orbiting_body": "Mars"
        },
        {
            "close_approach_date": "2017-12-05",
            "close_approach_date_full": "2017-Dec-05 14:34",
            "epoch_date_close_approach": 1512484440000,
            "relative_velocity": {
                "kilometers_per_second": "3.6515407449",
                "kilometers_per_hour": "13145.5466816971",
                "miles_per_hour": "8168.1314923023"
            },
            "miss_distance": {
                "astronomical": "0.3275181469",
                "lunar": "127.4045591441",
                "kilometers": "48996017.162587103",
                "miles": "30444713.3247159014"
            },
            "orbiting_body": "Earth"
        },
        {
            "close_approach_date": "2019-11-18",
            "close_approach_date_full": "2019-Nov-18 21:06",
            "epoch_date_close_approach": 1574111160000,
            "relative_velocity": {
                "kilometers_per_second": "1.6775307117",
                "kilometers_per_hour": "6039.1105621667",
                "miles_per_hour": "3752.4684490307"
            },
            "miss_distance": {
                "astronomical": "1.889861109",
                "lunar": "735.155971401",
                "kilometers": "282719196.50223783",
                "miles": "175673562.615148854"
            },
            "orbiting_body": "Juptr"
        }
    ],
    "orbital_data": {
        "orbit_id": "11",
        "orbit_determination_date": "2018-01-15 06:57:59",
        "first_observation_date": "2017-10-21",
        "last_observation_date": "2018-01-15",
        "data_arc_in_days": 86,
        "observations_used": 61,
        "orbit_uncertainty": "5",
        "minimum_orbit_intersection": ".31063",
        "jupiter_tisserand_invariant": "3.412",
        "epoch_osculation": "2459000.5",
        "eccentricity": ".450830138403315",
        "semi_major_axis": "2.340086392952268",
        "inclination": "6.979819318421946",
        "ascending_node_longitude": "229.5976082188713",
        "orbital_period": "1307.513747429668",
        "perihelion_distance": "1.285104920541883",
        "perihelion_argument": "216.1988345221186",
        "aphelion_distance": "3.395067865362652",
        "perihelion_time": "2459422.933865438299",
        "mean_anomaly": "243.6905601514772",
        "mean_motion": ".275331713114064",
        "equinox": "J2000",
        "orbit_class": {
            "orbit_class_type": "AMO",
            "orbit_class_description": "Near-Earth asteroid orbits similar to that of 1221 Amor",
            "orbit_class_range": "1.017 AU < q (perihelion) < 1.3 AU"
        }
    },
    "is_sentry_object": false
}